ONEWEB-0033             
1 45142U 20008M   24271.62327740  .00000371  00000+0  10276-2 0  9991
2 45142  87.8961 161.2102 0002003  75.4973 284.6376 13.10369766226020
ONEWEB-0035             
1 45143U 20008N   24271.42572366 -.00000452  00000+0 -13298-2 0  9995
2 45143  87.8970 161.2362 0001817  75.7885 284.3444 13.10372824225724
ONEWEB-0036             
1 45144U 20008P   24271.41575990 -.00000522  00000+0 -15307-2 0  9992
2 45144  87.8965 161.1913 0001562  67.7521 292.3772 13.10371072226150
ONEWEB-0038             
1 45145U 20008Q   24271.61592872 -.00000361  00000+0 -10543-2 0  9991
2 45145  87.8950 146.0568 0001401 104.3167 255.8116 13.11417527228862
ONEWEB-0039             
1 45146U 20008R   24271.62659289  .00000206  00000+0  55461-3 0  9994
2 45146  87.8963 161.1685 0001358  71.1767 288.9507 13.10370150226759
ONEWEB-0040             
1 45147U 20008S   24271.39090082  .00000496  00000+0  13860-2 0  9996
2 45147  87.8972 161.2232 0001723  76.4991 283.6328 13.10374250225647
ONEWEB-0043             
1 45149U 20008U   24271.62161614  .00000434  00000+0  12070-2 0  9998
2 45149  87.8965 161.1788 0001306  69.7503 290.3765 13.10370347225998
ONEWEB-0044             
1 45150U 20008V   24271.42073949 -.00000536  00000+0 -15711-2 0  9991
2 45150  87.8969 161.2133 0001436  72.7667 287.3617 13.10372436226262
